start=new Date('2023-03-14T00:00:00.000Z').valueOf();
sats=[{"LAUNCH_DATE":"2022-12-28","PERIOD":"95.839","OBJECT_NAME":"STARLINK-5107","COUNTRY_CODE":"US","RCS_SIZE":"LARGE","OBJECT_TYPE":"PAYLOAD","TIME_SYSTEM":"UTC","OBJECT_ID":"2022-177G","DECAY_DATE":null,"APOAPSIS":"559.690","ECCENTRICITY":"0.00008040","REV_AT_EPOCH":"1269","ARG_OF_PERICENTER":"175.8080","RA_OF_ASC_NODE":"306.8742","MEAN_ELEMENT_THEORY":"SGP4","CENTER_NAME":"EARTH","MEAN_ANOMALY":"184.2769","SEMIMAJOR_AXIS":"6937.267","REF_FRAME":"TEME","SITE":"AFETR","FILE":"3859631","INCLINATION":"42.9969","ELEMENT_SET_NO":"999","MEAN_MOTION_DOT":"-0.00002897","EPHEMERIS_TYPE":"0","TLE_LINE2":"2 54826  42.9969 306.8742 0000804 175.8080 184.2769 15.02519672 12690","CLASSIFICATION_TYPE":"U","EPOCH":"2023-03-13T17:15:10.891584","MEAN_MOTION_DDOT":"0.0000000000000","PERIAPSIS":"558.574","MEAN_MOTION":"15.02519672","TLE_LINE1":"1 54826U 22177G   23072.71887606 -.00002897  00000-0 -19960-3 0  9997","NORAD_CAT_ID":"54826","BSTAR":"-0.00019960000000","GP_ID":"228035592"},{"TIME_SYSTEM":"UTC","OBJECT_ID":"2022-177H","DECAY_DATE":null,"APOAPSIS":"560.150","REV_AT_EPOCH":"1260","ECCENTRICITY":"0.00016180","CENTER_NAME":"EARTH","ARG_OF_PERICENTER":"261.7694","RA_OF_ASC_NODE":"310.4282","MEAN_ELEMENT_THEORY":"SGP4","SITE":"AFETR","SEMIMAJOR_AXIS":"6937.162","MEAN_ANOMALY":"98.2964","REF_FRAME":"TEME","INCLINATION":"43.0015","FILE":"3859425","LAUNCH_DATE":"2022-12-28","PERIOD":"95.837","RCS_SIZE":"LARGE","COUNTRY_CODE":"US","OBJECT_NAME":"STARLINK-5383","OBJECT_TYPE":"PAYLOAD","PERIAPSIS":"557.905","TLE_LINE1":"1 54827U 22177H   23072.04631322  .00007721  00000-0  58574-3 0  9999","MEAN_MOTION":"15.02553664","NORAD_CAT_ID":"54827","BSTAR":"0.00058574000000","GP_ID":"228006462","MEAN_MOTION_DOT":"0.00007721","ELEMENT_SET_NO":"999","EPHEMERIS_TYPE":"0","TLE_LINE2":"2 54827  43.0015 310.4282 0001618 261.7694  98.2964 15.02553664 12606","EPOCH":"2023-03-13T01:06:41.462208","CLASSIFICATION_TYPE":"U","MEAN_MOTION_DDOT":"0.0000000000000"},{"LAUNCH_DATE":"2022-12-28","PERIOD":"95.836","OBJECT_NAME":"STARLINK-5381","COUNTRY_CODE":"US","RCS_SIZE":"LARGE","OBJECT_TYPE":"PAYLOAD","TIME_SYSTEM":"UTC","OBJECT_ID":"2022-177J","DECAY_DATE":null,"APOAPSIS":"560.149","ECCENTRICITY":"0.00016420","REV_AT_EPOCH":"1259","ARG_OF_PERICENTER":"275.9490","RA_OF_ASC_NODE":"310.4019","MEAN_ELEMENT_THEORY":"SGP4","CENTER_NAME":"EARTH","SEMIMAJOR_AXIS":"6937.145","REF_FRAME":"TEME","MEAN_ANOMALY":"84.1165","SITE":"AFETR","FILE":"3859425","INCLINATION":"43.0021","ELEMENT_SET_NO":"999","MEAN_MOTION_DOT":"0.00019498","EPHEMERIS_TYPE":"0","TLE_LINE2":"2 54828  43.0021 310.4019 0001642 275.9490  84.1165 15.02559166 12598","CLASSIFICATION_TYPE":"U","EPOCH":"2023-03-13T01:01:53.689728","MEAN_MOTION_DDOT":"0.0000000000000","PERIAPSIS":"557.871","MEAN_MOTION":"15.02559166","TLE_LINE1":"1 54828U 22177J   23072.04298252  .00019498  00000-0  14535-2 0  9993","NORAD_CAT_ID":"54828","BSTAR":"0.00145350000000","GP_ID":"228005714"},{"MEAN_ANOMALY":"71.6598","SEMIMAJOR_AXIS":"6937.222","REF_FRAME":"TEME","SITE":"AFETR","MEAN_ELEMENT_THEORY":"SGP4","ARG_OF_PERICENTER":"288.4099","RA_OF_ASC_NODE":"308.0041","CENTER_NAME":"EARTH","INCLINATION":"43.0004","FILE":"3859425","OBJECT_ID":"2022-177K","DECAY_DATE":null,"TIME_SYSTEM":"UTC","ECCENTRICITY":"0.00013390","REV_AT_EPOCH":"1266","APOAPSIS":"560.016","OBJECT_NAME":"STARLINK-5380","RCS_SIZE":"LARGE","COUNTRY_CODE":"US","PERIOD":"95.838","OBJECT_TYPE":"PAYLOAD","LAUNCH_DATE":"2022-12-28","BSTAR":"0.00005771400000","GP_ID":"228005964","NORAD_CAT_ID":"54829","PERIAPSIS":"558.158","MEAN_MOTION":"15.02534253","TLE_LINE1":"1 54829U 22177K   23072.52498482  .00000576  00000-0  57714-4 0  9999","TLE_LINE2":"2 54829  43.0004 308.0041 0001339 288.4099  71.6598 15.02534253 12664","MEAN_MOTION_DDOT":"0.0000000000000","CLASSIFICATION_TYPE":"U","EPOCH":"2023-03-13T12:35:58.688448","ELEMENT_SET_NO":"999","MEAN_MOTION_DOT":"0.00000576","EPHEMERIS_TYPE":"0"},{"TLE_LINE1":"1 54830U 22177L   23072.70223058  .00011348  00000-0  85506-3 0  9994","MEAN_MOTION":"15.02477742","PERIAPSIS":"558.728","NORAD_CAT_ID":"54830","GP_ID":"228036092","BSTAR":"0.00085506000000","EPHEMERIS_TYPE":"0","MEAN_MOTION_DOT":"0.00011348","ELEMENT_SET_NO":"999","CLASSIFICATION_TYPE":"U","EPOCH":"2023-03-13T16:51:12.722112","MEAN_MOTION_DDOT":"0.0000000000000","TLE_LINE2":"2 54830  43.0005 306.7462 0000768 265.6055  94.4700 15.02477742 12693","APOAPSIS":"559.794","REV_AT_EPOCH":"1269","ECCENTRICITY":"0.00007680","TIME_SYSTEM":"UTC","OBJECT_ID":"2022-177L","DECAY_DATE":null,"FILE":"3859631","INCLINATION":"43.0005","CENTER_NAME":"EARTH","RA_OF_ASC_NODE":"306.7462","ARG_OF_PERICENTER":"265.6055","MEAN_ELEMENT_THEORY":"SGP4","SITE":"AFETR","MEAN_ANOMALY":"94.4700","SEMIMAJOR_AXIS":"6937.396","REF_FRAME":"TEME","LAUNCH_DATE":"2022-12-28","OBJECT_TYPE":"PAYLOAD","PERIOD":"95.842","RCS_SIZE":"LARGE","COUNTRY_CODE":"US","OBJECT_NAME":"STARLINK-5394"},{"GP_ID":"228006962","BSTAR":"0.00117390000000","NORAD_CAT_ID":"54831","PERIAPSIS":"557.727","TLE_LINE1":"1 54831U 22177M   23072.04853303  .00015698  00000-0  11739-2 0  9992","MEAN_MOTION":"15.02555802","TLE_LINE2":"2 54831  43.0012 310.4450 0001864 269.5594  90.5034 15.02555802 12590","MEAN_MOTION_DDOT":"0.0000000000000","EPOCH":"2023-03-13T01:09:53.253792","CLASSIFICATION_TYPE":"U","MEAN_MOTION_DOT":"0.00015698","ELEMENT_SET_NO":"999","EPHEMERIS_TYPE":"0","SITE":"AFETR","MEAN_ANOMALY":"90.5034","SEMIMAJOR_AXIS":"6937.156","REF_FRAME":"TEME","CENTER_NAME":"EARTH","ARG_OF_PERICENTER":"269.5594","RA_OF_ASC_NODE":"310.4450","MEAN_ELEMENT_THEORY":"SGP4","INCLINATION":"43.0012","FILE":"3859425","OBJECT_ID":"2022-177M","DECAY_DATE":null,"TIME_SYSTEM":"UTC","REV_AT_EPOCH":"1259","ECCENTRICITY":"0.00018640","APOAPSIS":"560.314","RCS_SIZE":"LARGE","COUNTRY_CODE":"US","OBJECT_NAME":"STARLINK-5395","PERIOD":"95.837","OBJECT_TYPE":"PAYLOAD","LAUNCH_DATE":"2022-12-28"},{"OBJECT_ID":"2022-177N","DECAY_DATE":null,"TIME_SYSTEM":"UTC","REV_AT_EPOCH":"1273","ECCENTRICITY":"0.00013670","APOAPSIS":"560.002","SITE":"AFETR","SEMIMAJOR_AXIS":"6937.189","MEAN_ANOMALY":"83.4428","REF_FRAME":"TEME","CENTER_NAME":"EARTH","ARG_OF_PERICENTER":"276.6259","RA_OF_ASC_NODE":"298.0462","MEAN_ELEMENT_THEORY":"SGP4","INCLINATION":"42.9983","FILE":"3859425","LAUNCH_DATE":"2022-12-28","COUNTRY_CODE":"US","RCS_SIZE":"LARGE","OBJECT_NAME":"STARLINK-5393","PERIOD":"95.837","OBJECT_TYPE":"PAYLOAD","PERIAPSIS":"558.106","TLE_LINE1":"1 54832U 22177N   23072.01339258 -.00000629  00000-0 -31474-4 0  9998","MEAN_MOTION":"15.02544897","BSTAR":"-0.00003147400000","GP_ID":"228005215","NORAD_CAT_ID":"54832","MEAN_MOTION_DOT":"-0.00000629","ELEMENT_SET_NO":"999","EPHEMERIS_TYPE":"0","TLE_LINE2":"2 54832  42.9983 298.0462 0001367 276.6259  83.4428 15.02544897 12731","MEAN_MOTION_DDOT":"0.0000000000000","EPOCH":"2023-03-13T00:19:17.118912","CLASSIFICATION_TYPE":"U"},{"APOAPSIS":"560.636","REV_AT_EPOCH":"1269","ECCENTRICITY":"0.00022010","TIME_SYSTEM":"UTC","DECAY_DATE":null,"OBJECT_ID":"2022-177P","INCLINATION":"43.0028","FILE":"3859631","CENTER_NAME":"EARTH","ARG_OF_PERICENTER":"283.8521","RA_OF_ASC_NODE":"306.7618","MEAN_ELEMENT_THEORY":"SGP4","SITE":"AFETR","MEAN_ANOMALY":"76.2076","SEMIMAJOR_AXIS":"6937.244","REF_FRAME":"TEME","LAUNCH_DATE":"2022-12-28","OBJECT_TYPE":"PAYLOAD","PERIOD":"95.839","COUNTRY_CODE":"US","RCS_SIZE":"LARGE","OBJECT_NAME":"STARLINK-5391","TLE_LINE1":"1 54833U 22177P   23072.70333366 -.00000143  00000-0  45192-5 0  9992","MEAN_MOTION":"15.02527189","PERIAPSIS":"557.582","NORAD_CAT_ID":"54833","BSTAR":"0.00000451920000","GP_ID":"228035343","EPHEMERIS_TYPE":"0","MEAN_MOTION_DOT":"-0.00000143","ELEMENT_SET_NO":"999","CLASSIFICATION_TYPE":"U","EPOCH":"2023-03-13T16:52:48.028224","MEAN_MOTION_DDOT":"0.0000000000000","TLE_LINE2":"2 54833  43.0028 306.7618 0002201 283.8521  76.2076 15.02527189 12693"},{"TLE_LINE2":"2 54834  43.0016 310.3408 0001239 281.1838  78.8865 15.02562017 12605","MEAN_MOTION_DDOT":"0.0000000000000","EPOCH":"2023-03-13T00:50:42.696960","CLASSIFICATION_TYPE":"U","MEAN_MOTION_DOT":"0.00022372","ELEMENT_SET_NO":"999","EPHEMERIS_TYPE":"0","GP_ID":"228006208","BSTAR":"0.00166480000000","NORAD_CAT_ID":"54834","PERIAPSIS":"558.142","TLE_LINE1":"1 54834U 22177Q   23072.03521640  .00022372  00000-0  16648-2 0  9991","MEAN_MOTION":"15.02562017","COUNTRY_CODE":"US","RCS_SIZE":"LARGE","OBJECT_NAME":"STARLINK-5386","PERIOD":"95.836","OBJECT_TYPE":"PAYLOAD","LAUNCH_DATE":"2022-12-28","SITE":"AFETR","REF_FRAME":"TEME","SEMIMAJOR_AXIS":"6937.136","MEAN_ANOMALY":"78.8865","CENTER_NAME":"EARTH","ARG_OF_PERICENTER":"281.1838","RA_OF_ASC_NODE":"310.3408","MEAN_ELEMENT_THEORY":"SGP4","INCLINATION":"43.0016","FILE":"3859425","DECAY_DATE":null,"OBJECT_ID":"2022-177Q","TIME_SYSTEM":"UTC","REV_AT_EPOCH":"1260","ECCENTRICITY":"0.00012390","APOAPSIS":"559.861"},{"MEAN_MOTION_DOT":"0.00022361","ELEMENT_SET_NO":"999","EPHEMERIS_TYPE":"0","TLE_LINE2":"2 54835  43.0021 310.3846 0001965 268.8317  91.2300 15.02556455 12598","MEAN_MOTION_DDOT":"0.0000000000000","CLASSIFICATION_TYPE":"U","EPOCH":"2023-03-13T00:58:41.861856","PERIAPSIS":"557.655","TLE_LINE1":"1 54835U 22177R   23072.04076229  .00022361  00000-0  16642-2 0  9993","MEAN_MOTION":"15.02556455","GP_ID":"228006463","BSTAR":"0.00166420000000","NORAD_CAT_ID":"54835","LAUNCH_DATE":"2022-12-28","COUNTRY_CODE":"US","RCS_SIZE":"LARGE","OBJECT_NAME":"STARLINK-5389","PERIOD":"95.837","OBJECT_TYPE":"PAYLOAD","OBJECT_ID":"2022-177R","DECAY_DATE":null,"TIME_SYSTEM":"UTC","REV_AT_EPOCH":"1259","ECCENTRICITY":"0.00019650","APOAPSIS":"560.382","SITE":"AFETR","SEMIMAJOR_AXIS":"6937.154","MEAN_ANOMALY":"91.2300","REF_FRAME":"TEME","CENTER_NAME":"EARTH","ARG_OF_PERICENTER":"268.8317","RA_OF_ASC_NODE":"310.3846","MEAN_ELEMENT_THEORY":"SGP4","FILE":"3859425","INCLINATION":"43.0021"}];
